VNREDSAT 1              
1 39160U 13021B   24248.14561988  .00003243  00000+0  62916-3 0  9996
2 39160  97.9905 312.6238 0001484  88.8428 271.2945 14.63872366605007
ARIRANG-5 (KOMPSAT-5)   
1 39227U 13042A   24247.91595422  .00006481  00000+0  46740-3 0  9991
2 39227  97.6216  72.7173 0002291 134.1956 225.9458 15.04473776605938
SKYSAT-A                
1 39418U 13066C   24247.71583620  .00010080  00000+0  68904-3 0  9990
2 39418  97.4795 305.6493 0025304  39.4213 320.8850 15.06068827590164
DUBAISAT-2              
1 39419U 13066D   24248.16783439  .00011757  00000+0  90959-3 0  9998
2 39419  97.4185 249.5529 0015275  94.3187 265.9784 15.01529370588375
GPM-CORE                
1 39574U 14009C   24247.91892889  .00034263  00000+0  73152-3 0  9993
2 39574  64.9854 329.4448 0009029 256.8930 103.1203 15.44667056597211
SENTINEL-1A             
1 39634U 14016A   24248.14485734  .00000996  00000+0  22105-3 0  9999
2 39634  98.1824 254.1036 0001369  92.1389 267.9968 14.59203089555105
KAZEOSAT 1              
1 39731U 14024A   24247.89904679  .00001131  00000+0  35803-3 0  9992
2 39731  98.3903 323.0419 0001263  88.9751 271.1583 14.41976295544692
ALOS-2                  
1 39766U 14029A   24247.90246391  .00006566  00000+0  88516-3 0  9993
2 39766  97.9232 343.4177 0001554  96.4776 263.6613 14.79474464555280
KAZEOSAT 2              
1 40010U 14033A   24248.14964257  .00002795  00000+0  35192-3 0  9999
2 40010  97.6087 109.4628 0010653 315.3931  44.6425 14.82736606552374
HODOYOSHI-4             
1 40011U 14033B   24248.16673166  .00005238  00000+0  62066-3 0  9993
2 40011  97.5742  93.9594 0023724 301.6859  58.2043 14.84750267552087
DEIMOS-2                
1 40013U 14033D   24248.14423978  .00006928  00000+0  73354-3 0  9996
2 40013  97.6681 132.4231 0001611  60.5773 299.5606 14.89447187553519
HODOYOSHI-3             
1 40015U 14033F   24248.11737198  .00005879  00000+0  74338-3 0  9994
2 40015  97.5986  69.8458 0034399 338.5403  21.4367 14.81781099551080
SPOT 7                  
1 40053U 14034A   24248.17550042  .00002494  00000+0  53387-3 0  9995
2 40053  98.1517 313.6216 0001611  96.2191 263.9193 14.59605838542131
SKYSAT-B                
1 40072U 14037D   24247.71540280  .00005393  00000+0  64576-3 0  9994
2 40072  98.3270 162.9487 0004918 217.1265 142.9608 14.84553396549171
WORLDVIEW-3 (WV-3)      
1 40115U 14048A   24247.89755064  .00004606  00000+0  55878-3 0  9992
2 40115  97.8721 320.1587 0005401 328.4514  31.6376 14.84041233545257
GAOFEN-2                
1 40118U 14049A   24247.87776339  .00005014  00000+0  65992-3 0  9994
2 40118  98.1048 298.5292 0008593 158.1898 201.9681 14.80592708542864
YAOGAN-21               
1 40143U 14053A   24247.91403561  .00024738  00000+0  10425-2 0  9990
2 40143  97.2453 303.3313 0008126 272.1844  87.8463 15.23290279555769
YAOGAN-22               
1 40275U 14063A   24247.87527460 -.00000001  00000+0  12107-3 0  9995
2 40275 100.6752  20.2844 0006130 212.8253 147.2479 13.15488549474179
ASNARO                  
1 40298U 14070A   24247.90695462  .00034232  00000+0  16110-2 0  9999
2 40298  97.4073 327.9945 0006423 228.6969 131.3714 15.19450239545105
HODOYOSHI-1             
1 40299U 14070B   24247.89816107  .00066707  00000+0  10090-2 0  9992
2 40299  97.1314 307.3394 0008029 114.9330 245.2760 15.54436552547305
YAOGAN-23               
1 40305U 14071A   24247.93930675  .00107046  00000+0  12699-2 0  9992
2 40305  97.6904 238.8376 0005666 111.3032 248.8830 15.60830181544593
YAOGAN-24               
1 40310U 14072A   24248.15969328  .00004230  00000+0  61689-3 0  9996
2 40310  98.0652  12.5145 0013084 181.7670 178.3495 14.76280237527690
CBERS 4                 
1 40336U 14079A   24247.88289655  .00000712  00000+0  26237-3 0  9999
2 40336  98.3941 314.1382 0001995  98.3638 261.7774 14.35484507510512
RESURS-P 2              
1 40360U 14087A   24248.22953074  .00067230  00000+0  65249-3 0  9991
2 40360  97.1476 335.6124 0004247   6.7525 353.3792 15.66124799543403
YAOGAN-26               
1 40362U 14088A   24248.14451478  .00030653  00000+0  12846-2 0  9999
2 40362  97.0813 264.7832 0009355 189.1324 170.9745 15.23422646539327
SMAP                    
1 40376U 15003A   24247.93427257  .00002736  00000+0  53915-3 0  9990
2 40376  98.1297 253.2162 0001560 104.6312 255.5063 14.63316374512370
KOMPSAT-3A              
1 40536U 15014A   24247.86158646  .00025126  00000+0  10201-2 0  9993
2 40536  97.6183 199.1964 0004791  58.7099 301.4606 15.24569476521661
SENTINEL-2A             
1 40697U 15028A   24248.12359770  .00000074  00000+0  44682-4 0  9994
2 40697  98.5636 321.2505 0001105  95.3168 264.8141 14.30814955480639
GAOFEN-8                
1 40701U 15030A   24247.90785710  .00033235  00000+0  13793-2 0  9997
2 40701  97.6646  44.2686 0007666 340.6620  19.4324 15.23752831511634
CARBONITE 1 (CBNT-1)    
1 40718U 15032D   24247.89400142  .00007340  00000+0  99425-3 0  9993
2 40718  97.6541  84.2393 0014048 267.6197  92.3406 14.79156673492893
YAOGAN-27               
1 40878U 15040A   24248.12893019  .00000035  00000+0  20361-3 0  9992
2 40878 100.0821 253.2346 0007606 278.0419  81.9832 13.16024888433525
GAOFEN-9 01             
1 40894U 15047A   24248.20078988  .00004826  00000+0  63624-3 0  9997
2 40894  97.7225 299.8983 0030286 110.1980 250.2494 14.80215377483780
LAPAN-A2                
1 40931U 15052B   24231.70395842  .00002296  00000+0  22250-3 0  9992
2 40931   5.9997 265.9807 0013402 250.6059 109.2619 14.78018769480834
YAOGAN-28               
1 41026U 15064A   24247.86799070  .00026144  00000+0  10944-2 0  9990
2 41026  97.2212  35.1884 0007752 258.6995 101.3371 15.23508599491469
YAOGAN-29               
1 41038U 15069A   24248.18340268  .00002056  00000+0  26669-3 0  9993
2 41038  98.0550 263.0599 0001724  34.7202 325.4123 14.81895148474162
KENT RIDGE 1            
1 41167U 15077B   24247.80230913  .00010253  00000+0  48054-3 0  9998
2 41167  14.9815  48.0704 0009926  88.8708 271.2750 15.16040166481969
TELEOS-1                
1 41169U 15077D   24247.78217062  .00048474  00000+0  13137-2 0  9996
2 41169  14.9785 299.5240 0005332 281.6992  78.2734 15.35717804482936
GAOFEN-4                
1 41194U 15083A   24247.89171544 -.00000341  00000+0  00000+0 0  9991
2 41194   0.0766 108.3418 0001511 125.8643 175.9924  1.00268410 31993
JASON-3                 
1 41240U 16002A   24248.20175867 -.00000028  00000+0  14125-3 0  9992
2 41240  66.0422  47.2280 0007784 265.6486  94.3640 12.80928916403761
SENTINEL-3A             
1 41335U 16011A   24248.20075402  .00000652  00000+0  28726-3 0  9995
2 41335  98.6337 313.8435 0000925  99.6046 260.5239 14.26735894445235
ZIYUAN 3-2 (ZY 3-2)     
1 41556U 16033A   24248.15365424  .00021272  00000+0  95161-3 0  9992
2 41556  97.4509 322.7298 0002988 307.6040  52.4924 15.21313749459007
CARTOSAT-2C             
1 41599U 16040A   24247.92914940  .00016197  00000+0  76572-3 0  9999
2 41599  97.4664 306.1373 0013840 239.0372 120.9503 15.19387830454830
SKYSAT-C1               
1 41601U 16040C   24248.10926094  .00028199  00000+0  95480-3 0  9991
2 41601  97.0541 304.5965 0003178 196.1207 163.9934 15.30542602458210
LAPAN-A3                
1 41603U 16040E   24248.14443766  .00008713  00000+0  33937-3 0  9996
2 41603  97.1423 258.3313 0012129 171.5744 188.5701 15.26137887455261
BIROS                   
1 41604U 16040F   24247.64159977  .00028398  00000+0  67952-3 0  9994
2 41604  97.1190 273.9866 0010303 118.6050 241.6235 15.41366743456258
GAOFEN-3                
1 41727U 16049A   24248.17831749  .00000484  00000+0  16017-3 0  9994
2 41727  98.4072 254.6803 0001350  73.8210 286.3128 14.42219294424807
SKYSAT-C4               
1 41771U 16058B   24247.53915770  .00019688  00000+0  58457-3 0  9999
2 41771  97.0024 291.1663 0004302 111.8120 248.3582 15.34811818445235
SKYSAT-C5               
1 41772U 16058C   24247.68761605  .00027880  00000+0  79022-3 0  9996
2 41772  97.1500 300.6200 0003511 113.9274 246.2339 15.36210618443736
SKYSAT-C2               
1 41773U 16058D   24247.69211309  .00023095  00000+0  76188-3 0  9993
2 41773  97.0047 289.6265 0000244 224.5074 135.6149 15.31427779445124
SKYSAT-C3               
1 41774U 16058E   24247.63187129  .00034361  00000+0  81474-3 0  9992
2 41774  97.0026 298.4342 0005384 162.3595 197.7841 15.41644063445725
ALSAT 1B                
1 41785U 16059C   24248.16461357  .00001803  00000+0  30019-3 0  9996
2 41785  97.8152 273.3957 0010266 149.7689 210.4113 14.71169198424812
PATHFINDER 1            
1 41787U 16059E   24248.13608455  .00003353  00000+0  61894-3 0  9994
2 41787  97.8286 266.5734 0030816 118.8293 241.6011 14.65787616424266
SCATSAT 1               
1 41790U 16059H   24247.70612380  .00003535  00000+0  50404-3 0  9999
2 41790  98.2136 291.5112 0058153 180.1346 179.9857 14.76282375  5341
GOKTURK 1A              
1 41875U 16073A   24247.90398764  .00002105  00000+0  42141-3 0  9999
2 41875  98.1387 141.2012 0001435  84.1075 276.0290 14.62826692413619
RESOURCESAT-2A          
1 41877U 16074A   24247.90362524  .00000742  00000+0  35777-3 0  9999
2 41877  98.6402 319.7534 0002151 115.4542 244.6859 14.21660554401761
CARTOSAT-2D             
1 41948U 17008A   24247.89601257  .00015945  00000+0  75783-3 0  9995
2 41948  97.4185 305.8166 0004892 356.1094   4.0102 15.19279240418697
SENTINEL-2B             
1 42063U 17013A   24248.15859195  .00000715  00000+0  28934-3 0  9991
2 42063  98.5642 321.2849 0001126  90.6665 269.4647 14.30820799391556
ZHUHAI-1 02 (CAS-4B)    
1 42759U 17034B   24247.91131320  .00041731  00000+0  13113-2 0  9997
2 42759  43.0156 140.4722 0011558 165.9372 194.1805 15.32249140399461
NUSAT-3 (MILANESAT)     
1 42760U 17034C   24247.88922223  .00043915  00000+0  12201-2 0  9998
2 42760  43.0061 123.5436 0015371 191.5493 168.5011 15.36055810399678
ZHUHAI-1 01 (CAS-4A)    
1 42761U 17034D   24247.90605075  .00044361  00000+0  13854-2 0  9996
2 42761  43.0194 138.7913 0011493 178.8080 181.2803 15.32421984399468
